2025-07-26 09:15:36,651 - src.stk_interface.stk_manager - INFO - å‚æ•° inclination = 51.856 åº¦ åœ¨åˆç†èŒƒå›´å†…
2025-07-26 09:15:36,652 - src.stk_interface.stk_manager - INFO - å‚æ•° raan = 24.0 åº¦ åœ¨åˆç†èŒƒå›´å†…
2025-07-26 09:15:36,652 - src.stk_interface.stk_manager - INFO - å‚æ•° arg_of_perigee = 12 åº¦ åœ¨åˆç†èŒƒå›´å†…
2025-07-26 09:15:36,652 - src.stk_interface.stk_manager - INFO - å‚æ•° mean_anomaly = 180.0 åº¦ åœ¨åˆç†èŒƒå›´å†…
2025-07-26 09:15:36,652 - src.stk_interface.stk_manager - INFO - ä½¿ç”¨STK Connectå‘½ä»¤è®¾ç½®Walkeræ˜Ÿåº§è½¨é“å‚æ•°...
2025-07-26 09:15:36,652 - src.stk_interface.stk_manager - INFO - ä¼ æ’­å™¨ç±»å‹è®¾ç½®ä¸ºJ2æ‘„åŠ¨
2025-07-26 09:15:36,653 - src.stk_interface.stk_manager - INFO - æ‰§è¡ŒSTKå‘½ä»¤: SetState */Satellite/Satellite01 Classical J2000 "26 Jul 2025 04:00:00.000" 8171000.0 0.0 0.9050579369141796 0.4188790204786391 0.20943951023931956 3.141592653589793
2025-07-26 09:15:36,662 - src.stk_interface.stk_manager - ERROR - âŒ STK Connectå‘½ä»¤è½¨é“å‚æ•°è®¾ç½®å¤±è´¥: (-2147352567, 'å‘ç”Ÿæ„å¤–ã€‚', (0, 'AgStkObjects12.AgStkObjectRoot.1', 'Command has failed.', None, 0, -2147220988), None)
2025-07-26 09:15:36,663 - src.stk_interface.stk_manager - INFO - ğŸ”„ å°è¯•COMæ¥å£å¤‡ç”¨æ–¹æ³•...
2025-07-26 09:15:36,714 - src.stk_interface.stk_manager - INFO - âœ… COMæ¥å£å¤‡ç”¨æ–¹æ³•è®¾ç½®è½¨é“å‚æ•°æˆåŠŸ
2025-07-26 09:15:36,833 - src.stk_interface.stk_manager - INFO - âœ… è½¨é“ä¼ æ’­å®Œæˆ
2025-07-26 09:15:36,833 - src.stk_interface.stk_manager - INFO - è½¨é“å‚æ•°è®¾ç½®æˆåŠŸï¼Œå«æ˜Ÿè½¨é“å·²æ›´æ–°
2025-07-26 09:15:36,937 - src.stk_interface.stk_manager - INFO - å«æ˜Ÿ Satellite01 åˆ›å»ºæˆåŠŸ
2025-07-26 09:15:37,100 - src.stk_interface.stk_manager - INFO - ä½¿ç”¨COMæ¥å£åˆ›å»ºè½½è·: Satellite01_Payload
2025-07-26 09:15:38,100 - src.stk_interface.stk_manager - INFO - =============== å¼€å§‹è¯¦ç»†é…ç½®è½½è·å‚æ•° ===============
2025-07-26 09:15:38,101 - src.stk_interface.stk_manager - INFO - æ¥æ”¶åˆ°çš„è½½è·å‚æ•°: {'type': 'Optical_Sensor', 'mounting': 'Nadir', 'sensor_pattern': 'Conic', 'inner_cone_half_angle': 66.1, 'outer_cone_half_angle': 85.0, 'clockwise_angle_min': 0.0, 'clockwise_angle_max': 360.0, 'pointing': {'azimuth': 0.0, 'elevation': 90.0}, 'constraints_range': {'min_range': 0, 'max_range': 5000, 'active': True}}
2025-07-26 09:15:38,128 - src.stk_interface.stk_manager - ERROR - âŒ Patternå¯¹è±¡è®¾ç½®æ–¹æ³•å¤±è´¥: Property '<unknown>.InnerConeHalfAngle' can not be set.
2025-07-26 09:15:38,129 - src.stk_interface.stk_manager - ERROR - é…ç½®åœ†é”¥è§†åœºå‚æ•°å¤±è´¥: Property '<unknown>.InnerConeHalfAngle' can not be set.
2025-07-26 09:15:38,182 - src.stk_interface.stk_manager - INFO - âœ“ ä½¿ç”¨STKå®˜æ–¹æ–¹æ³•è®¾ç½®æŒ‡å‘å‚æ•°æˆåŠŸ: æ–¹ä½è§’0.0Â°, ä¿¯ä»°è§’90.0Â°
2025-07-26 09:15:38,183 - src.stk_interface.stk_manager - INFO - =============== å¼€å§‹é…ç½®ä¼ æ„Ÿå™¨çº¦æŸ ===============
2025-07-26 09:15:38,709 - src.stk_interface.stk_manager - INFO - âœ“ è·å–ä¼ æ„Ÿå™¨çº¦æŸå¯¹è±¡æˆåŠŸ
2025-07-26 09:15:38,709 - src.stk_interface.stk_manager - INFO - é…ç½®è·ç¦»çº¦æŸ: 0 km åˆ° 5000 km
2025-07-26 09:15:39,291 - src.stk_interface.stk_manager - INFO - âœ“ è®¾ç½®è·ç¦»çº¦æŸæˆåŠŸ: 0 km åˆ° 5000 km
2025-07-26 09:15:39,292 - src.stk_interface.stk_manager - INFO - === ä¼ æ„Ÿå™¨çº¦æŸé…ç½®ç»“æœæ€»ç»“ ===
2025-07-26 09:15:39,292 - src.stk_interface.stk_manager - INFO - æˆåŠŸé…ç½®çš„çº¦æŸ (1 ä¸ª):
2025-07-26 09:15:39,292 - src.stk_interface.stk_manager - INFO -   âœ“ è·ç¦»çº¦æŸ(0 km åˆ° 5000 km)
2025-07-26 09:15:39,292 - src.stk_interface.stk_manager - INFO - =============== ä¼ æ„Ÿå™¨çº¦æŸé…ç½®å®Œæˆ ===============
2025-07-26 09:15:39,295 - src.stk_interface.stk_manager - INFO - === è½½è·é…ç½®ç»“æœæ€»ç»“ ===
2025-07-26 09:15:39,295 - src.stk_interface.stk_manager - INFO - æˆåŠŸé…ç½®çš„å‚æ•° (2 ä¸ª):
2025-07-26 09:15:39,295 - src.stk_interface.stk_manager - INFO -   âœ“ æŒ‡å‘å‚æ•°(STKå®˜æ–¹æ–¹æ³•, æ–¹ä½è§’0.0Â°, ä¿¯ä»°è§’90.0Â°)
2025-07-26 09:15:39,295 - src.stk_interface.stk_manager - INFO -   âœ“ è·ç¦»çº¦æŸ(0 km åˆ° 5000 km)
2025-07-26 09:15:39,295 - src.stk_interface.stk_manager - WARNING - é…ç½®å¤±è´¥çš„å‚æ•° (1 ä¸ª):
2025-07-26 09:15:39,295 - src.stk_interface.stk_manager - WARNING -   âœ— åœ†é”¥è§†åœºå‚æ•°é…ç½®: Property '<unknown>.InnerConeHalfAngle' can not be set.
2025-07-26 09:15:39,295 - src.stk_interface.stk_manager - INFO - === è½½è·é…ç½®å®Œæˆ ===
2025-07-26 09:15:39,296 - src.stk_interface.stk_manager - INFO - è½½è· Satellite01_Payload åˆ›å»ºæˆåŠŸ
2025-07-26 09:15:39,298 - src.constellation.constellation_manager - INFO - âœ… å«æ˜Ÿåˆ›å»ºæˆåŠŸ: Satellite01 (è½¨é“é¢1, ä½ç½®1)
2025-07-26 09:15:39,353 - src.stk_interface.stk_manager - INFO - ä½¿ç”¨COMæ¥å£åˆ›å»ºå«æ˜Ÿ: Satellite02
2025-07-26 09:15:41,354 - src.stk_interface.stk_manager - INFO - åœºæ™¯Childrenå¯¹è±¡åˆ—è¡¨:
2025-07-26 09:15:41,403 - src.stk_interface.stk_manager - INFO - Child 0: ClassName=Satellite, InstanceName=Satellite01, Name=None
2025-07-26 09:15:41,442 - src.stk_interface.stk_manager - INFO - Child 1: ClassName=Satellite, InstanceName=Satellite02, Name=None
2025-07-26 09:15:41,528 - src.stk_interface.stk_manager - INFO - è½¨é“ä¼ æ’­å™¨ç±»å‹è®¾ç½®æˆåŠŸ
2025-07-26 09:15:41,528 - src.stk_interface.stk_manager - INFO - å¼€å§‹è®¾ç½®å«æ˜Ÿè½¨é“å‚æ•°...
2025-07-26 09:15:41,529 - src.stk_interface.stk_manager - INFO - æ¥æ”¶åˆ°çš„è½¨é“å‚æ•°: {'semi_axis': 8171.0, 'eccentricity': 0.0, 'inclination': 51.856, 'raan': 24.0, 'arg_of_perigee': 12, 'mean_anomaly': 300.0}
2025-07-26 09:15:41,529 - src.stk_interface.stk_manager - INFO - å‚æ•° semi_axis = 8171.0 km åœ¨åˆç†èŒƒå›´å†…
2025-07-26 09:15:41,529 - src.stk_interface.stk_manager - INFO - å‚æ•° eccentricity = 0.0 æ— é‡çº² åœ¨åˆç†èŒƒå›´å†…
2025-07-26 09:15:41,529 - src.stk_interface.stk_manager - INFO - å‚æ•° inclination = 51.856 åº¦ åœ¨åˆç†èŒƒå›´å†…
2025-07-26 09:15:41,529 - src.stk_interface.stk_manager - INFO - å‚æ•° raan = 24.0 åº¦ åœ¨åˆç†èŒƒå›´å†…
2025-07-26 09:15:41,529 - src.stk_interface.stk_manager - INFO - å‚æ•° arg_of_perigee = 12 åº¦ åœ¨åˆç†èŒƒå›´å†…
2025-07-26 09:15:41,529 - src.stk_interface.stk_manager - INFO - å‚æ•° mean_anomaly = 300.0 åº¦ åœ¨åˆç†èŒƒå›´å†…
2025-07-26 09:15:41,530 - src.stk_interface.stk_manager - INFO - ä½¿ç”¨STK Connectå‘½ä»¤è®¾ç½®Walkeræ˜Ÿåº§è½¨é“å‚æ•°...
2025-07-26 09:15:41,530 - src.stk_interface.stk_manager - INFO - ä¼ æ’­å™¨ç±»å‹è®¾ç½®ä¸ºJ2æ‘„åŠ¨
2025-07-26 09:15:41,530 - src.stk_interface.stk_manager - INFO - æ‰§è¡ŒSTKå‘½ä»¤: SetState */Satellite/Satellite02 Classical J2000 "26 Jul 2025 04:00:00.000" 8171000.0 0.0 0.9050579369141796 0.4188790204786391 0.20943951023931956 5.235987755982989
2025-07-26 09:15:41,531 - src.stk_interface.stk_manager - ERROR - âŒ STK Connectå‘½ä»¤è½¨é“å‚æ•°è®¾ç½®å¤±è´¥: (-2147352567, 'å‘ç”Ÿæ„å¤–ã€‚', (0, 'AgStkObjects12.AgStkObjectRoot.1', 'Command has failed.', None, 0, -2147220988), None)
2025-07-26 09:15:41,531 - src.stk_interface.stk_manager - INFO - ğŸ”„ å°è¯•COMæ¥å£å¤‡ç”¨æ–¹æ³•...
2025-07-26 09:15:41,578 - src.stk_interface.stk_manager - INFO - âœ… COMæ¥å£å¤‡ç”¨æ–¹æ³•è®¾ç½®è½¨é“å‚æ•°æˆåŠŸ
2025-07-26 09:15:41,641 - src.stk_interface.stk_manager - INFO - âœ… è½¨é“ä¼ æ’­å®Œæˆ
2025-07-26 09:15:41,642 - src.stk_interface.stk_manager - INFO - è½¨é“å‚æ•°è®¾ç½®æˆåŠŸï¼Œå«æ˜Ÿè½¨é“å·²æ›´æ–°
2025-07-26 09:15:41,753 - src.stk_interface.stk_manager - INFO - å«æ˜Ÿ Satellite02 åˆ›å»ºæˆåŠŸ
2025-07-26 09:15:41,931 - src.stk_interface.stk_manager - INFO - ä½¿ç”¨COMæ¥å£åˆ›å»ºè½½è·: Satellite02_Payload
2025-07-26 09:15:42,932 - src.stk_interface.stk_manager - INFO - =============== å¼€å§‹è¯¦ç»†é…ç½®è½½è·å‚æ•° ===============
2025-07-26 09:15:42,933 - src.stk_interface.stk_manager - INFO - æ¥æ”¶åˆ°çš„è½½è·å‚æ•°: {'type': 'Optical_Sensor', 'mounting': 'Nadir', 'sensor_pattern': 'Conic', 'inner_cone_half_angle': 66.1, 'outer_cone_half_angle': 85.0, 'clockwise_angle_min': 0.0, 'clockwise_angle_max': 360.0, 'pointing': {'azimuth': 0.0, 'elevation': 90.0}, 'constraints_range': {'min_range': 0, 'max_range': 5000, 'active': True}}
2025-07-26 09:15:42,971 - src.stk_interface.stk_manager - ERROR - âŒ Patternå¯¹è±¡è®¾ç½®æ–¹æ³•å¤±è´¥: Property '<unknown>.InnerConeHalfAngle' can not be set.
2025-07-26 09:15:42,971 - src.stk_interface.stk_manager - ERROR - é…ç½®åœ†é”¥è§†åœºå‚æ•°å¤±è´¥: Property '<unknown>.InnerConeHalfAngle' can not be set.
2025-07-26 09:15:43,028 - src.stk_interface.stk_manager - INFO - âœ“ ä½¿ç”¨STKå®˜æ–¹æ–¹æ³•è®¾ç½®æŒ‡å‘å‚æ•°æˆåŠŸ: æ–¹ä½è§’0.0Â°, ä¿¯ä»°è§’90.0Â°
2025-07-26 09:15:43,029 - src.stk_interface.stk_manager - INFO - =============== å¼€å§‹é…ç½®ä¼ æ„Ÿå™¨çº¦æŸ ===============
2025-07-26 09:15:43,560 - src.stk_interface.stk_manager - INFO - âœ“ è·å–ä¼ æ„Ÿå™¨çº¦æŸå¯¹è±¡æˆåŠŸ
2025-07-26 09:15:43,560 - src.stk_interface.stk_manager - INFO - é…ç½®è·ç¦»çº¦æŸ: 0 km åˆ° 5000 km
2025-07-26 09:15:44,157 - src.stk_interface.stk_manager - INFO - âœ“ è®¾ç½®è·ç¦»çº¦æŸæˆåŠŸ: 0 km åˆ° 5000 km
2025-07-26 09:15:44,157 - src.stk_interface.stk_manager - INFO - === ä¼ æ„Ÿå™¨çº¦æŸé…ç½®ç»“æœæ€»ç»“ ===
2025-07-26 09:15:44,157 - src.stk_interface.stk_manager - INFO - æˆåŠŸé…ç½®çš„çº¦æŸ (1 ä¸ª):
2025-07-26 09:15:44,158 - src.stk_interface.stk_manager - INFO -   âœ“ è·ç¦»çº¦æŸ(0 km åˆ° 5000 km)
2025-07-26 09:15:44,158 - src.stk_interface.stk_manager - INFO - =============== ä¼ æ„Ÿå™¨çº¦æŸé…ç½®å®Œæˆ ===============
2025-07-26 09:15:44,160 - src.stk_interface.stk_manager - INFO - === è½½è·é…ç½®ç»“æœæ€»ç»“ ===
2025-07-26 09:15:44,161 - src.stk_interface.stk_manager - INFO - æˆåŠŸé…ç½®çš„å‚æ•° (2 ä¸ª):
2025-07-26 09:15:44,161 - src.stk_interface.stk_manager - INFO -   âœ“ æŒ‡å‘å‚æ•°(STKå®˜æ–¹æ–¹æ³•, æ–¹ä½è§’0.0Â°, ä¿¯ä»°è§’90.0Â°)
2025-07-26 09:15:44,161 - src.stk_interface.stk_manager - INFO -   âœ“ è·ç¦»çº¦æŸ(0 km åˆ° 5000 km)
2025-07-26 09:15:44,161 - src.stk_interface.stk_manager - WARNING - é…ç½®å¤±è´¥çš„å‚æ•° (1 ä¸ª):
2025-07-26 09:15:44,161 - src.stk_interface.stk_manager - WARNING -   âœ— åœ†é”¥è§†åœºå‚æ•°é…ç½®: Property '<unknown>.InnerConeHalfAngle' can not be set.
